OBJECT_NAME,OBJECT_ID,EPOCH,MEAN_MOTION,ECCENTRICITY,INCLINATION,RA_OF_ASC_NODE,ARG_OF_PERICENTER,MEAN_ANOMALY,EPHEMERIS_TYPE,CLASSIFICATION_TYPE,NORAD_CAT_ID,ELEMENT_SET_NO,REV_AT_EPOCH,BSTAR,MEAN_MOTION_DOT,MEAN_MOTION_DDOT
ONEWEB-0473,2022-012AH,2026-06-18T07:44:53.026944,13.10300985,.00017746,87.8824,36.0504,79.8969,280.2359,0,U,51653,999,20945,-.16502762E-1,-.5739E-4,0
ONEWEB-0474,2022-012AJ,2026-06-18T14:52:43.212576,13.10320365,.00016536,87.8834,35.9767,77.7792,282.3520,0,U,51654,999,20948,-.10290433E-1,-.3575E-4,0
ONEWEB-0475,2022-012AK,2026-06-18T01:23:00.534048,13.17648702,.00014603,87.9132,5.6993,69.2278,290.9010,0,U,51655,999,21380,.92101224E-4,.49E-6,0
ONEWEB-0490,2022-138A,2026-06-18T08:20:37.378176,13.19724649,.0001723,87.9178,304.7356,102.1942,257.9384,0,U,54113,999,17698,.43367998E-4,.3E-6,0
ONEWEB-0492,2022-138B,2026-06-18T14:24:32.851008,13.19726406,.00018684,87.9171,304.6865,107.2248,252.9089,0,U,54114,999,17702,.17863971E-3,.84E-6,0
ONEWEB-0495,2022-138C,2026-06-18T06:35:59.669088,13.19724988,.00013085,87.9171,304.7536,112.2481,247.8791,0,U,54115,999,17696,.12807485E-3,.64E-6,0
ONEWEB-0497,2022-138D,2026-06-18T06:54:11.490336,13.19724967,.00017973,87.9178,304.7432,99.4959,260.6377,0,U,54116,999,17695,.7528406E-5,.16E-6,0
ONEWEB-0499,2022-138E,2026-06-18T15:36:11.079072,13.19727181,.00016171,87.9172,304.6803,98.7345,261.3971,0,U,54117,999,17701,.24934524E-3,.113E-5,0
ONEWEB-0500,2022-138F,2026-06-18T08:22:53.643072,13.19724156,.00019574,87.9178,304.7346,100.5735,259.5618,0,U,54118,999,17698,.43815333E-4,.3E-6,0
ONEWEB-0501,2022-138G,2026-06-18T14:33:38.259648,13.19724001,.00014734,87.9179,304.6829,105.4594,254.6702,0,U,54119,999,17699,.14724361E-3,.72E-6,0
ONEWEB-0502,2022-138H,2026-06-18T06:56:27.291264,13.19724597,.00016131,87.9179,304.7348,95.3819,264.7498,0,U,54120,999,17697,.35492852E-4,.27E-6,0
ONEWEB-0503,2022-138J,2026-06-18T06:40:32.637792,13.19724731,.00019063,87.9181,304.7431,90.8966,269.2385,0,U,54121,999,17696,-.17975345E-4,.6E-7,0
ONEWEB-0504,2022-138K,2026-06-17T21:16:28.311456,13.19725042,.00016331,87.9179,304.8261,96.0610,264.0709,0,U,54122,999,17692,.70241319E-4,.41E-6,0
ONEWEB-0505,2022-138L,2026-06-18T15:23:41.002656,13.19726992,.00013905,87.9180,304.6768,100.6066,259.5223,0,U,54123,999,17700,.47350004E-3,.203E-5,0
ONEWEB-0506,2022-138M,2026-06-18T14:47:16.632672,13.19724855,.0001557,87.9180,304.6787,101.6103,258.5204,0,U,54124,999,17699,.2844669E-3,.127E-5,0
ONEWEB-0507,2022-138N,2026-06-18T15:16:51.712896,13.19724901,.00016975,87.9172,304.6868,102.4766,257.6557,0,U,54125,999,17704,.19016626E-3,.89E-6,0
ONEWEB-0508,2022-138P,2026-06-18T15:12:18.055584,13.19724785,.00015625,87.9172,304.6869,109.9471,250.1830,0,U,54126,999,17702,.2483524E-3,.112E-5,0
ONEWEB-0509,2022-138Q,2026-06-18T14:35:54.307680,13.19725779,.00017261,87.9182,304.6815,100.8983,259.2344,0,U,54127,999,17699,.51261928E-4,.33E-6,0
ONEWEB-0510,2022-138R,2026-06-18T06:26:27.230208,13.20772550,.00023743,87.9196,274.2202,94.4877,265.6528,0,U,54128,999,17942,.36015645E-4,.28E-6,0
ONEWEB-0511,2022-138S,2026-06-18T14:31:21.917856,13.19726954,.00017418,87.9177,304.6847,90.8882,269.2451,0,U,54129,999,17702,.15952534E-3,.77E-6,0
ONEWEB-0512,2022-138T,2026-06-18T07:03:16.911936,13.19725110,.00015138,87.9170,304.7516,96.2834,263.8471,0,U,54130,999,17695,-.27495354E-4,.2E-7,0
ONEWEB-0513,2022-138U,2026-06-18T14:27:14.275584,13.20269320,.00010733,87.9178,304.6343,77.7841,282.3412,0,U,54131,999,17690,.33089502E-4,.26E-6,0
ONEWEB-0514,2022-138V,2026-06-18T07:26:01.771872,13.19725045,.00019918,87.9180,304.7423,96.7945,263.3414,0,U,54132,999,17697,.13495933E-3,.67E-6,0
ONEWEB-0515,2022-138W,2026-06-18T13:23:25.014624,13.20770842,.00027838,87.9201,274.1572,109.0674,251.0761,0,U,54133,999,17948,.2878952E-3,.13E-5,0
ONEWEB-0516,2022-138X,2026-06-17T21:43:44.820768,13.19725318,.00018136,87.9169,304.8292,102.8226,257.3110,0,U,54134,999,17692,-.41695634E-4,-.4E-7,0
ONEWEB-0517,2022-138Y,2026-06-18T15:25:56.967744,13.19725031,.00019314,87.9179,304.6748,89.6823,270.4531,0,U,54135,999,17702,.28467603E-3,.127E-5,0
ONEWEB-0518,2022-138Z,2026-06-18T06:47:22.633440,13.19728164,.00018674,87.9170,304.7559,104.9550,255.1789,0,U,54136,999,17697,.70215734E-4,.41E-6,0
ONEWEB-0519,2022-138AA,2026-06-18T14:40:27.906240,13.19727554,.00019066,87.9184,304.6820,92.2871,267.8480,0,U,54137,999,17702,.20883137E-3,.97E-6,0
ONEWEB-0520,2022-138AB,2026-06-18T15:30:30.462624,13.19724962,.00016351,87.9180,304.6752,102.9260,257.2056,0,U,54138,999,17701,.12364755E-3,.62E-6,0
ONEWEB-0521,2022-138AC,2026-06-18T14:29:05.124192,13.19725616,.00019745,87.9180,304.6721,93.1315,267.0044,0,U,54139,999,17695,.23553248E-3,.107E-5,0
